{"type":"FeatureCollection","crs":{"type":"name","properties":{"name":"EPSG:3857"}},"features":[{"type":"Feature","id":2,"geometry":{"type":"Point","coordinates":[-8572168.1085999999,-1367172.883200001]},"properties":{"OBJECTID":2,"Código_Único":"00005998","Distrito":"CHORRILLOS","Categoria":"I-4","POINT_Y":-12.188538799999947,"DIRECCION":"Av. buenos aires de villa s/n, Chorrillos","NOM_EESS_RECOR":"C.M.I. BUENOS AIRES DE VILLA","AMBULANCIAS":null,"tipo_atencion":"UVICLIN","estado_uviclin":"ACTIVO","camas_totales":1,"camas_ocupadas":0,"camas_disponibles":1,"porc_ocupacion":0,"camas_mosquiteros":1,"camillas_totales":1,"camillas_ocupadas":0,"camillas_disponibles":1,"porc_ocup_camill":0,"camillas_mosquiteros":0,"rrhh":null}},{"type":"Feature","id":6,"geometry":{"type":"Point","coordinates":[-8557077.3189000003,-1376702.8053000011]},"properties":{"OBJECTID":6,"Código_Único":"00036447","Distrito":"LURIN","Categoria":"I-4","POINT_Y":-12.272204539999962,"DIRECCION":"JIRÓN BOLIVAR NUMERO 206, LURÍN","NOM_EESS_RECOR":"C.M.I. LURIN","AMBULANCIAS":null,"tipo_atencion":"UVICLIN","estado_uviclin":"ACTIVO","camas_totales":2,"camas_ocupadas":0,"camas_disponibles":2,"porc_ocupacion":0,"camas_mosquiteros":2,"camillas_totales":0,"camillas_ocupadas":0,"camillas_disponibles":0,"porc_ocup_camill":0,"camillas_mosquiteros":2,"rrhh":null}},{"type":"Feature","id":8,"geometry":{"type":"Point","coordinates":[-8557651.7107999995,-1373457.8326999992]},"properties":{"OBJECTID":8,"Código_Único":"00006093","Distrito":"LURIN","Categoria":"I-3","POINT_Y":-12.243719029999966,"DIRECCION":"Jr. huanuco s/n centro poblado rural casica-villa libertad-pachacamac","NOM_EESS_RECOR":"C.S. CLAS VILLA LIBERTAD","AMBULANCIAS":null,"tipo_atencion":"UNIDAD FEBRIL","estado_uviclin":"ACTIVO","camas_totales":0,"camas_ocupadas":0,"camas_disponibles":0,"porc_ocupacion":0,"camas_mosquiteros":0,"camillas_totales":1,"camillas_ocupadas":0,"camillas_disponibles":1,"porc_ocup_camill":0,"camillas_mosquiteros":1,"rrhh":null}},{"type":"Feature","id":9,"geometry":{"type":"Point","coordinates":[-8560742.9473000001,-1372357.6691000015]},"properties":{"OBJECTID":9,"Código_Único":"00016852","Distrito":"LURIN","Categoria":"I-2","POINT_Y":-12.234060709999937,"DIRECCION":"Av. Los Cipreces mz b , lote 01 , martha milagros baja, lurin","NOM_EESS_RECOR":"P.S. MARTHA MILAGROS BAJA","AMBULANCIAS":null,"tipo_atencion":"UNIDAD FEBRIL","estado_uviclin":"ACTIVO","camas_totales":0,"camas_ocupadas":0,"camas_disponibles":0,"porc_ocupacion":0,"camas_mosquiteros":0,"camillas_totales":2,"camillas_ocupadas":0,"camillas_disponibles":2,"porc_ocup_camill":0,"camillas_mosquiteros":1,"rrhh":null}},{"type":"Feature","id":12,"geometry":{"type":"Point","coordinates":[-8563504.6358000003,-1367505.5709000006]},"properties":{"OBJECTID":12,"Código_Único":"00006164","Distrito":"VILLA MARIA DEL TRIUNFO","Categoria":"I-4","POINT_Y":-12.19145999999995,"DIRECCION":"ASv. republica y billingurst s/n 2do sector, VMT","NOM_EESS_RECOR":"C.M.I. TABLADA DE LURIN","AMBULANCIAS":14,"tipo_atencion":"UVICLIN","estado_uviclin":"ACTIVO","camas_totales":9,"camas_ocupadas":0,"camas_disponibles":9,"porc_ocupacion":0,"camas_mosquiteros":12,"camillas_totales":0,"camillas_ocupadas":0,"camillas_disponibles":0,"porc_ocup_camill":0,"camillas_mosquiteros":0,"rrhh":"EXCLUSIVO"}},{"type":"Feature","id":15,"geometry":{"type":"Point","coordinates":[-8569566.0556000005,-1362619.0447000004]},"properties":{"OBJECTID":15,"Código_Único":"00006109","Distrito":"SAN JUAN DE MIRAFLORES","Categoria":"I-3","POINT_Y":-12.148550099999966,"DIRECCION":"P.J. jesus poderoso lote c mz t s/n pamplona baja, SJM","NOM_EESS_RECOR":"C.S. JESUS PODEROSO","AMBULANCIAS":null,"tipo_atencion":"UNIDAD FEBRIL","estado_uviclin":"ACTIVO","camas_totales":0,"camas_ocupadas":0,"camas_disponibles":0,"porc_ocupacion":0,"camas_mosquiteros":1,"camillas_totales":1,"camillas_ocupadas":0,"camillas_disponibles":1,"porc_ocup_camill":0,"camillas_mosquiteros":1,"rrhh":null}},{"type":"Feature","id":16,"geometry":{"type":"Point","coordinates":[-8568124.0774000008,-1363097.7151000015]},"properties":{"OBJECTID":16,"Código_Único":"00006104","Distrito":"SAN JUAN DE MIRAFLORES","Categoria":"I-4","POINT_Y":-12.15275373999998,"DIRECCION":"Jr. Manuel barreto s/n, cdra. 2, zona k, ciudad de dios, san juan de miraflores","NOM_EESS_RECOR":"C.M.I. MANUEL BARRETO","AMBULANCIAS":6,"tipo_atencion":"UNIDAD FEBRIL","estado_uviclin":"ACTIVO","camas_totales":0,"camas_ocupadas":0,"camas_disponibles":0,"porc_ocupacion":0,"camas_mosquiteros":0,"camillas_totales":6,"camillas_ocupadas":0,"camillas_disponibles":6,"porc_ocup_camill":0,"camillas_mosquiteros":2,"rrhh":"EXCLUSIVO"}},{"type":"Feature","id":29,"geometry":{"type":"Point","coordinates":[-8564456.5343999993,-1363564.9956]},"properties":{"OBJECTID":29,"Código_Único":"00006151","Distrito":"VILLA MARIA DEL TRIUNFO","Categoria":"I-4","POINT_Y":-12.156857289999948,"DIRECCION":"Av. Pedro valle s/n (altura cuadra 18 av.el triunfo, VMT","NOM_EESS_RECOR":"C.M.I. VILLA MARIA DEL TRIUNFO","AMBULANCIAS":12,"tipo_atencion":"UNIDAD FEBRIL","estado_uviclin":"ACTIVO","camas_totales":0,"camas_ocupadas":0,"camas_disponibles":0,"porc_ocupacion":0,"camas_mosquiteros":0,"camillas_totales":2,"camillas_ocupadas":0,"camillas_disponibles":2,"porc_ocup_camill":0,"camillas_mosquiteros":2,"rrhh":null}},{"type":"Feature","id":34,"geometry":{"type":"Point","coordinates":[-8567791.5928000007,-1365934.1651000008]},"properties":{"OBJECTID":34,"Código_Único":"00006122","Distrito":"SAN JUAN DE MIRAFLORES","Categoria":"I-3","POINT_Y":-12.177661819999969,"DIRECCION":"Av. Miguel Grau mz. l, lote. 15 - alt. cdra 9 Av. prolong. Canevaro aahh trébol azul, SJM","NOM_EESS_RECOR":"C.S. TREBOL AZUL","AMBULANCIAS":7,"tipo_atencion":"UNIDAD FEBRIL","estado_uviclin":"ACTIVO","camas_totales":0,"camas_ocupadas":0,"camas_disponibles":0,"porc_ocupacion":0,"camas_mosquiteros":0,"camillas_totales":1,"camillas_ocupadas":0,"camillas_disponibles":1,"porc_ocup_camill":0,"camillas_mosquiteros":0,"rrhh":null}},{"type":"Feature","id":45,"geometry":{"type":"Point","coordinates":[-8556287.2744999994,-1358173.622200001]},"properties":{"OBJECTID":45,"Código_Único":"00015075","Distrito":"PACHACAMAC","Categoria":"I-3","POINT_Y":-12.109507639999947,"DIRECCION":"manzana k8 lote 5b, sector los jardines huertos de manchay, pachacamac","NOM_EESS_RECOR":"C.S. CLAS JUAN PABLO II","AMBULANCIAS":null,"tipo_atencion":"UNIDAD FEBRIL","estado_uviclin":"ACTIVO","camas_totales":0,"camas_ocupadas":0,"camas_disponibles":0,"porc_ocupacion":0,"camas_mosquiteros":0,"camillas_totales":2,"camillas_ocupadas":0,"camillas_disponibles":2,"porc_ocup_camill":0,"camillas_mosquiteros":2,"rrhh":null}},{"type":"Feature","id":47,"geometry":{"type":"Point","coordinates":[-8543872.2191000003,-1399237.3095000014]},"properties":{"OBJECTID":47,"Código_Único":"00006085","Distrito":"PUCUSANA","Categoria":"I-3","POINT_Y":-12.469934999999964,"DIRECCION":"A.H. benjamin doig lossio mz 21 lt 13, Pucusana","NOM_EESS_RECOR":"C.S. BENJAMIN DOIG","AMBULANCIAS":null,"tipo_atencion":"UNIDAD FEBRIL","estado_uviclin":"ACTIVO","camas_totales":0,"camas_ocupadas":0,"camas_disponibles":0,"porc_ocupacion":0,"camas_mosquiteros":0,"camillas_totales":2,"camillas_ocupadas":0,"camillas_disponibles":2,"porc_ocup_camill":0,"camillas_mosquiteros":2,"rrhh":"EXCLUSIVO"}},{"type":"Feature","id":50,"geometry":{"type":"Point","coordinates":[-8567538.0894000009,-1361134.1671999991]},"properties":{"OBJECTID":50,"Código_Único":"00006107","Distrito":"SAN JUAN DE MIRAFLORES","Categoria":"I-4","POINT_Y":-12.135509619999937,"DIRECCION":"Av. Prolongacion gabriel torres s/n pamplona alta, SJM","NOM_EESS_RECOR":"C.M.I. OLLANTAY","AMBULANCIAS":4,"tipo_atencion":"UNIDAD FEBRIL","estado_uviclin":"ACTIVO","camas_totales":0,"camas_ocupadas":0,"camas_disponibles":0,"porc_ocupacion":0,"camas_mosquiteros":0,"camillas_totales":3,"camillas_ocupadas":0,"camillas_disponibles":3,"porc_ocup_camill":0,"camillas_mosquiteros":0,"rrhh":null}},{"type":"Feature","id":51,"geometry":{"type":"Point","coordinates":[-8568370.5443999991,-1361935.2712999992]},"properties":{"OBJECTID":51,"Código_Único":"00006106","Distrito":"SAN JUAN DE MIRAFLORES","Categoria":"I-3","POINT_Y":-12.142545149999933,"DIRECCION":"Av. Villa solidaridad o10 1 sector villa san luis y josé c. mariátegui villa san luis","NOM_EESS_RECOR":"C.S. VILLA SAN LUIS","AMBULANCIAS":5,"tipo_atencion":"UNIDAD FEBRIL","estado_uviclin":"ACTIVO","camas_totales":0,"camas_ocupadas":0,"camas_disponibles":0,"porc_ocupacion":0,"camas_mosquiteros":0,"camillas_totales":3,"camillas_ocupadas":0,"camillas_disponibles":3,"porc_ocup_camill":0,"camillas_mosquiteros":0,"rrhh":null}},{"type":"Feature","id":57,"geometry":{"type":"Point","coordinates":[-8572316.7980000004,-1362515.1843999997]},"properties":{"OBJECTID":57,"Código_Único":"00005993","Distrito":"SANTIAGO DE SURCO","Categoria":"I-3","POINT_Y":-12.147637999999972,"DIRECCION":"jirón daniel cornejo 182 santiago de surco lima lima","NOM_EESS_RECOR":"C.S. SANTIAGO DE SURCO","AMBULANCIAS":null,"tipo_atencion":"UNIDAD FEBRIL","estado_uviclin":"ACTIVO","camas_totales":0,"camas_ocupadas":0,"camas_disponibles":0,"porc_ocupacion":0,"camas_mosquiteros":0,"camillas_totales":1,"camillas_ocupadas":0,"camillas_disponibles":1,"porc_ocup_camill":0,"camillas_mosquiteros":1,"rrhh":null}},{"type":"Feature","id":63,"geometry":{"type":"Point","coordinates":[-8565609.7653000001,-1368303.872299999]},"properties":{"OBJECTID":63,"Código_Único":"00006132","Distrito":"VILLA EL SALVADOR","Categoria":"I-4","POINT_Y":-12.19846943999994,"DIRECCION":"Sector 01, grupo 15, Interseccion Av. Revolucion y Av. Los Angeles","NOM_EESS_RECOR":"C.M.I. SAN JOSE","AMBULANCIAS":8,"tipo_atencion":"UVICLIN","estado_uviclin":"ACTIVO","camas_totales":5,"camas_ocupadas":0,"camas_disponibles":5,"porc_ocupacion":0,"camas_mosquiteros":5,"camillas_totales":0,"camillas_ocupadas":0,"camillas_disponibles":0,"porc_ocup_camill":0,"camillas_mosquiteros":0,"rrhh":"EXCLUSIVO"}},{"type":"Feature","id":67,"geometry":{"type":"Point","coordinates":[-8560282.9050999992,-1374263.1642000005]},"properties":{"OBJECTID":67,"Código_Único":"00006080","Distrito":"LURIN","Categoria":"I-3","POINT_Y":-12.250788799999953,"DIRECCION":"Av. Las Acasias mz b lt 12 st 1 julio c. tello, lurin","NOM_EESS_RECOR":"C.S. JULIO C. TELLO","AMBULANCIAS":null,"tipo_atencion":"UNIDAD FEBRIL","estado_uviclin":"ACTIVO","camas_totales":0,"camas_ocupadas":0,"camas_disponibles":0,"porc_ocupacion":0,"camas_mosquiteros":0,"camillas_totales":2,"camillas_ocupadas":0,"camillas_disponibles":2,"porc_ocup_camill":0,"camillas_mosquiteros":2,"rrhh":null}},{"type":"Feature","id":69,"geometry":{"type":"Point","coordinates":[-8555804.2324999999,-1371681.2408000007]},"properties":{"OBJECTID":69,"Código_Único":"00006090","Distrito":"PACHACAMAC","Categoria":"I-4","POINT_Y":-12.228122179999957,"DIRECCION":"Av. Colonial s/n y esq. castilla, pachacamac","NOM_EESS_RECOR":"C.M.I. PACHACAMAC","AMBULANCIAS":16,"tipo_atencion":"UVICLIN","estado_uviclin":"ACTIVO","camas_totales":3,"camas_ocupadas":0,"camas_disponibles":3,"porc_ocupacion":0,"camas_mosquiteros":3,"camillas_totales":0,"camillas_ocupadas":0,"camillas_disponibles":0,"porc_ocup_camill":0,"camillas_mosquiteros":0,"rrhh":"EESS"}},{"type":"Feature","id":77,"geometry":{"type":"Point","coordinates":[-8561311.5305000003,-1369668.6086000018]},"properties":{"OBJECTID":77,"Código_Único":"00006141","Distrito":"VILLA MARIA DEL TRIUNFO","Categoria":"I-4","POINT_Y":-12.210451999999975,"DIRECCION":"Ca. Arica con Agricultura s/n, VMT","NOM_EESS_RECOR":"C.M.I. JOSE GALVEZ","AMBULANCIAS":15,"tipo_atencion":"UVICLIN","estado_uviclin":"ACTIVO","camas_totales":10,"camas_ocupadas":0,"camas_disponibles":10,"porc_ocupacion":0,"camas_mosquiteros":5,"camillas_totales":0,"camillas_ocupadas":0,"camillas_disponibles":0,"porc_ocup_camill":0,"camillas_mosquiteros":null,"rrhh":"EXCLUSIVO"}},{"type":"Feature","id":91,"geometry":{"type":"Point","coordinates":[-8574233.0517999995,-1364680.8258999996]},"properties":{"OBJECTID":91,"Código_Único":"00006162","Distrito":"CHORRILLOS","Categoria":"I-4","POINT_Y":-12.166655999999932,"DIRECCION":"Ca. ferrocarril s/n, Chorrillos","NOM_EESS_RECOR":"C.E. SAN PEDRO DE LOS CHORRILLOS","AMBULANCIAS":1,"tipo_atencion":"UVICLIN","estado_uviclin":"ACTIVO","camas_totales":2,"camas_ocupadas":0,"camas_disponibles":2,"porc_ocupacion":0,"camas_mosquiteros":2,"camillas_totales":0,"camillas_ocupadas":0,"camillas_disponibles":0,"porc_ocup_camill":0,"camillas_mosquiteros":0,"rrhh":null}},{"type":"Feature","id":103,"geometry":{"type":"Point","coordinates":[-8568856.2079000007,-1363643.6160000004]},"properties":{"OBJECTID":103,"Código_Único":"00006115","Distrito":"SAN JUAN DE MIRAFLORES","Categoria":"I-3","POINT_Y":-12.15754770999996,"DIRECCION":"Psje. San juan s/n zona a (junto comisaría sjm), SJM","NOM_EESS_RECOR":"C.S. SAN JUAN DE MIRAFLORES","AMBULANCIAS":null,"tipo_atencion":"UNIDAD FEBRIL","estado_uviclin":"ACTIVO","camas_totales":0,"camas_ocupadas":0,"camas_disponibles":0,"porc_ocupacion":0,"camas_mosquiteros":2,"camillas_totales":2,"camillas_ocupadas":0,"camillas_disponibles":2,"porc_ocup_camill":0,"camillas_mosquiteros":1,"rrhh":null}},{"type":"Feature","id":109,"geometry":{"type":"Point","coordinates":[-8563100.2120999992,-1371937.8465000018]},"properties":{"OBJECTID":109,"Código_Único":"00006124","Distrito":"VILLA EL SALVADOR","Categoria":"I-4","POINT_Y":-12.230374999999981,"DIRECCION":"Sector IV- Mza. B-I Etapa Urb. Pachac","NOM_EESS_RECOR":"C.M.I. CESAR LOPEZ SILVA","AMBULANCIAS":10,"tipo_atencion":"UVICLIN","estado_uviclin":"ACTIVO","camas_totales":2,"camas_ocupadas":0,"camas_disponibles":2,"porc_ocupacion":0,"camas_mosquiteros":2,"camillas_totales":0,"camillas_ocupadas":0,"camillas_disponibles":0,"porc_ocup_camill":0,"camillas_mosquiteros":null,"rrhh":null}},{"type":"Feature","id":112,"geometry":{"type":"Point","coordinates":[-8573943.8738000002,-1367781.5489000008]},"properties":{"OBJECTID":112,"Código_Único":"00006000","Distrito":"CHORRILLOS","Categoria":"I-4","POINT_Y":-12.193883229999926,"DIRECCION":"Av. principal (altura de la calle 12) aahh san genaro, Chorrillos","NOM_EESS_RECOR":"C.S. SAN GENARO DE VILLA","AMBULANCIAS":3,"tipo_atencion":"UVICLIN","estado_uviclin":"ACTIVO","camas_totales":2,"camas_ocupadas":0,"camas_disponibles":2,"porc_ocupacion":0,"camas_mosquiteros":2,"camillas_totales":0,"camillas_ocupadas":0,"camillas_disponibles":0,"porc_ocup_camill":0,"camillas_mosquiteros":0,"rrhh":"EESS"}},{"type":"Feature","id":116,"geometry":{"type":"Point","coordinates":[-8558453.2634999994,-1355819.4653999992]},"properties":{"OBJECTID":116,"Código_Único":"00006092","Distrito":"PACHACAMAC","Categoria":"I-3","POINT_Y":-12.088829659999931,"DIRECCION":"Ca. 7 cruce con Ca. 4 Mz F Lt 11 AAHH Portada de Manchay, Pachacamac","NOM_EESS_RECOR":"C.S. PORTADA DE MANCHAY","AMBULANCIAS":null,"tipo_atencion":"UNIDAD FEBRIL","estado_uviclin":"ACTIVO","camas_totales":0,"camas_ocupadas":0,"camas_disponibles":0,"porc_ocupacion":0,"camas_mosquiteros":0,"camillas_totales":2,"camillas_ocupadas":0,"camillas_disponibles":2,"porc_ocup_camill":0,"camillas_mosquiteros":2,"rrhh":"EXCLUSIVO"}},{"type":"Feature","id":117,"geometry":{"type":"Point","coordinates":[-8552294.0952000003,-1384150.2309000008]},"properties":{"OBJECTID":117,"Código_Único":"00006086","Distrito":"PUNTA HERMOSA","Categoria":"I-3","POINT_Y":-12.337568999999974,"DIRECCION":"Jr. Pimental Nº 248 Mz G Lt 9, Puente Hermosa","NOM_EESS_RECOR":"C.S. PUNTA HERMOSA","AMBULANCIAS":null,"tipo_atencion":"UNIDAD FEBRIL","estado_uviclin":"ACTIVO","camas_totales":0,"camas_ocupadas":0,"camas_disponibles":0,"porc_ocupacion":0,"camas_mosquiteros":0,"camillas_totales":1,"camillas_ocupadas":0,"camillas_disponibles":1,"porc_ocup_camill":0,"camillas_mosquiteros":1,"rrhh":null}},{"type":"Feature","id":121,"geometry":{"type":"Point","coordinates":[-8565532.4317000005,-1365968.2364000008]},"properties":{"OBJECTID":121,"Código_Único":"00006153","Distrito":"VILLA MARIA DEL TRIUNFO","Categoria":"I-4","POINT_Y":-12.177960999999982,"DIRECCION":"Av. pachacutec nº 3470, VMT","NOM_EESS_RECOR":"C.M.I. DANIEL ALCIDES CARRION","AMBULANCIAS":13,"tipo_atencion":"UVICLIN","estado_uviclin":"ACTIVO","camas_totales":8,"camas_ocupadas":0,"camas_disponibles":8,"porc_ocupacion":0,"camas_mosquiteros":8,"camillas_totales":0,"camillas_ocupadas":0,"camillas_disponibles":0,"porc_ocup_camill":0,"camillas_mosquiteros":0,"rrhh":"EXCLUSIVO"}},{"type":"Feature","id":122,"geometry":{"type":"Point","coordinates":[-8562576.8356999997,-1364782.6163999997]},"properties":{"OBJECTID":122,"Código_Único":"00006142","Distrito":"VILLA MARIA DEL TRIUNFO","Categoria":"I-3","POINT_Y":-12.167549859999951,"DIRECCION":"avenida av. condebamba s/n, VMT","NOM_EESS_RECOR":"C.S. VIRGEN DE LOURDES","AMBULANCIAS":null,"tipo_atencion":"UNIDAD FEBRIL","estado_uviclin":"ACTIVO","camas_totales":0,"camas_ocupadas":0,"camas_disponibles":0,"porc_ocupacion":0,"camas_mosquiteros":0,"camillas_totales":1,"camillas_ocupadas":0,"camillas_disponibles":1,"porc_ocup_camill":0,"camillas_mosquiteros":1,"rrhh":null}},{"type":"Feature","id":126,"geometry":{"type":"Point","coordinates":[-8563887.0183000006,-1374030.804299999]},"properties":{"OBJECTID":126,"Código_Único":"00007278","Distrito":"VILLA EL SALVADOR","Categoria":"I-3","POINT_Y":-12.248748999999975,"DIRECCION":"Jr. Heroes del Cenepa Mza C Lote 20, ALT DE PANAM.SUR","NOM_EESS_RECOR":"C.S. HEROES DEL CENEPA","AMBULANCIAS":null,"tipo_atencion":"UNIDAD FEBRIL","estado_uviclin":"ACTIVO","camas_totales":0,"camas_ocupadas":0,"camas_disponibles":0,"porc_ocupacion":0,"camas_mosquiteros":0,"camillas_totales":1,"camillas_ocupadas":0,"camillas_disponibles":1,"porc_ocup_camill":0,"camillas_mosquiteros":1,"rrhh":null}},{"type":"Feature","id":127,"geometry":{"type":"Point","coordinates":[-8565594.5480000004,-1370707.4730000012]},"properties":{"OBJECTID":127,"Código_Único":"00006133","Distrito":"VILLA EL SALVADOR","Categoria":"I-4","POINT_Y":-12.219572999999968,"DIRECCION":"Av. Mariano Pastor Sevilla s/n ,sector 6,grupo 6, VES","NOM_EESS_RECOR":"C.M.I. JUAN PABLO II","AMBULANCIAS":9,"tipo_atencion":"UVICLIN","estado_uviclin":"ACTIVO","camas_totales":6,"camas_ocupadas":0,"camas_disponibles":6,"porc_ocupacion":0,"camas_mosquiteros":6,"camillas_totales":0,"camillas_ocupadas":0,"camillas_disponibles":0,"porc_ocup_camill":0,"camillas_mosquiteros":0,"rrhh":"EXCLUSIVO"}},{"type":"Feature","id":128,"geometry":{"type":"Point","coordinates":[-8563515.6743000001,-1373619.1132000014]},"properties":{"OBJECTID":128,"Código_Único":"00006128","Distrito":"VILLA EL SALVADOR","Categoria":"I-3","POINT_Y":-12.245134879999966,"DIRECCION":"Av. Tahuantinsuyo Mza U s/n Sector 10 AAHH Edilberto Ramos, VES","NOM_EESS_RECOR":"C.S. EDILBERTO RAMOS","AMBULANCIAS":null,"tipo_atencion":"UNIDAD FEBRIL","estado_uviclin":"ACTIVO","camas_totales":0,"camas_ocupadas":0,"camas_disponibles":0,"porc_ocupacion":0,"camas_mosquiteros":0,"camillas_totales":1,"camillas_ocupadas":0,"camillas_disponibles":1,"porc_ocup_camill":0,"camillas_mosquiteros":1,"rrhh":null}},{"type":"Feature","id":131,"geometry":{"type":"Point","coordinates":[-8562375.4799000006,-1373402.9164999984]},"properties":{"OBJECTID":131,"Código_Único":"00006129","Distrito":"VILLA EL SALVADOR","Categoria":"I-3","POINT_Y":-12.243236929999966,"DIRECCION":"Av. Maria Reich Mza. K s/n AA.HH. Brisas de Pachacamac","NOM_EESS_RECOR":"C.S. BRISAS DE PACHACAMAC","AMBULANCIAS":null,"tipo_atencion":"UNIDAD FEBRIL","estado_uviclin":"ACTIVO","camas_totales":0,"camas_ocupadas":0,"camas_disponibles":0,"porc_ocupacion":0,"camas_mosquiteros":0,"camillas_totales":1,"camillas_ocupadas":0,"camillas_disponibles":1,"porc_ocup_camill":0,"camillas_mosquiteros":1,"rrhh":null}},{"type":"Feature","id":132,"geometry":{"type":"Point","coordinates":[-8573870.4842000008,-1364613.5245000012]},"properties":{"OBJECTID":132,"Código_Único":"00005991","Distrito":"CHORRILLOS","Categoria":"I-4","POINT_Y":-12.166064999999946,"DIRECCION":"Ca. Leopoldo Arias nro. 200 chorrillos","NOM_EESS_RECOR":"C.M.I. VIRGEN DEL CARMEN","AMBULANCIAS":2,"tipo_atencion":"UVICLIN","estado_uviclin":"ACTIVO","camas_totales":2,"camas_ocupadas":0,"camas_disponibles":2,"porc_ocupacion":0,"camas_mosquiteros":2,"camillas_totales":0,"camillas_ocupadas":0,"camillas_disponibles":0,"porc_ocup_camill":0,"camillas_mosquiteros":0,"rrhh":null}},{"type":"Feature","id":138,"geometry":{"type":"Point","coordinates":[-8561531.2752,-1372601.804299999]},"properties":{"OBJECTID":138,"Código_Único":"00006082","Distrito":"LURIN","Categoria":"I-3","POINT_Y":-12.23620399999993,"DIRECCION":"MZ L- LOTE 31- I Etapa AAHH VILLA ALEJANDRO , LURIN","NOM_EESS_RECOR":"C.S. VILLA ALEJANDRO","AMBULANCIAS":null,"tipo_atencion":"UNIDAD FEBRIL","estado_uviclin":"ACTIVO","camas_totales":0,"camas_ocupadas":0,"camas_disponibles":0,"porc_ocupacion":0,"camas_mosquiteros":0,"camillas_totales":1,"camillas_ocupadas":0,"camillas_disponibles":1,"porc_ocup_camill":0,"camillas_mosquiteros":1,"rrhh":null}},{"type":"Feature","id":140,"geometry":{"type":"Point","coordinates":[-8548901.2184999995,-1387087.5223999992]},"properties":{"OBJECTID":140,"Código_Único":"00006087","Distrito":"PUNTA NEGRA","Categoria":"I-3","POINT_Y":-12.363344499999926,"DIRECCION":"Av. Guayanay norte - zona central mz h-1 lt 6 punta negra","NOM_EESS_RECOR":"C.S. PUNTA NEGRA","AMBULANCIAS":null,"tipo_atencion":"UNIDAD FEBRIL","estado_uviclin":"ACTIVO","camas_totales":0,"camas_ocupadas":0,"camas_disponibles":0,"porc_ocupacion":0,"camas_mosquiteros":0,"camillas_totales":2,"camillas_ocupadas":0,"camillas_disponibles":2,"porc_ocup_camill":0,"camillas_mosquiteros":2,"rrhh":null}}]}